NORAD_CAT_ID,OBJECT_NAME,OBJECT_TYPE,EPOCH,MEAN_MOTION,ECCENTRICITY,INCLINATION,RA_OF_ASC_NODE,ARG_OF_PERICENTER,MEAN_ANOMALY,BSTAR,MEAN_MOTION_DOT,MEAN_MOTION_DDOT,TLE_LINE0,TLE_LINE1,TLE_LINE2,SEMIMAJOR_AXIS,PERIOD,APOGEE,PERIGEE,DECAYED
53578.0,STARLINK-4556,PAYLOAD,2022-11-21 06:00:00,15.08813826,0.0001676999999999,53.2174,60.6887,47.9305,213.4009,0.0023096,0.00036634,0.0,0 STARLINK-4556,1 53578U 22101BD  22325.25001157  .00036634  00000-0  23096-2 0  9993,2 53578  53.2174  60.6887 0001677  47.9305 213.4009 15.08813826 14619,6917.96,95.439,540.986,538.665,0.0
53578.0,STARLINK-4556,PAYLOAD,2022-11-21 14:00:01,15.08828385,0.0001906,53.2177,59.1942,42.5885,230.3265,0.0010375,0.00016257,0.0,0 STARLINK-4556,1 53578U 22101BD  22325.58334491  .00016257  00000-0  10375-2 0  9994,2 53578  53.2177  59.1942 0001906  42.5885 230.3265 15.08828385  1306,6917.916,95.438,541.099,538.462,0.0
53578.0,STARLINK-4556,PAYLOAD,2022-11-21 22:00:00,15.08875566,0.0001806,53.2179,57.6972,40.5012,243.9972,-0.0038178,-0.00060597,0.0,0 STARLINK-4556,1 53578U 22101BD  22325.91667824 -.00060597  00000-0 -38178-2 0  9999,2 53578  53.2179  57.6972 0001806  40.5012 243.9972 15.08875566 14721,6917.772,95.435,540.886,538.387,0.0
53578.0,STARLINK-4556,PAYLOAD,2022-11-22 00:00:00,15.0886146,0.000176,53.2181,57.3226,41.9558,335.4506,-0.0027278,-0.00043465,0.0,0 STARLINK-4556,1 53578U 22101BD  22326.00001157 -.00043465  00000-0 -27278-2 0  9995,2 53578  53.2181  57.3226 0001760  41.9558 335.4506 15.08861460  1300,6917.815,95.436,540.8969999999998,538.462,0.0
53578.0,STARLINK-4556,PAYLOAD,2022-11-22 14:00:01,15.0883215,0.0001943,53.2184,54.7054,40.0447,267.7215,0.0011231,0.00017628,0.0,0 STARLINK-4556,1 53578U 22101BD  22326.58335648  .00017628  00000-0  11231-2 0  9995,2 53578  53.2184  54.7054 0001943  40.0447 267.7215 15.08832150 14822,6917.904,95.438,541.114,538.425,0.0
53578.0,STARLINK-4556,PAYLOAD,2022-11-22 22:00:00,15.08873879,0.0001894,53.2185,53.2083,40.525,278.7691,-0.0044199,-0.00070014,0.0,0 STARLINK-4556,1 53578U 22101BD  22326.91667824 -.00070014  00000-0 -44199-2 0  9995,2 53578  53.2185  53.2083 0001894  40.5250 278.7691 15.08873879  1303,6917.776999999999,95.435,540.952,538.332,0.0
53578.0,STARLINK-4556,PAYLOAD,2022-11-23 06:00:00,15.08826336,0.000186,53.2189,51.7112,47.4732,283.4221,0.0016647,0.00026295,0.0,0 STARLINK-4556,1 53578U 22101BD  22327.25001157  .00026295  00000-0  16647-2 0  9991,2 53578  53.2189  51.7112 0001860  47.4732 283.4221 15.08826336 14927,6917.922,95.438,541.0740000000002,538.5,0.0
53578.0,STARLINK-4556,PAYLOAD,2022-11-23 14:00:01,15.088346,0.0002055,53.219,50.2168,41.817,300.6716,0.00049157,7.543e-05,0.0,0 STARLINK-4556,1 53578U 22101BD  22327.58334491  .00007543  00000-0  49157-3 0  9995,2 53578  53.2190  50.2168 0002055  41.8170 300.6716 15.08834600  1307,6917.897,95.438,541.184,538.34,0.0
53578.0,STARLINK-4556,PAYLOAD,2022-11-23 22:00:00,15.08852744,0.0001909,53.2189,48.7195,40.8841,313.1985,-0.0033019,-0.00052475,0.0,0 STARLINK-4556,1 53578U 22101BD  22327.91667824 -.00052475  00000-0 -33019-2 0  9996,2 53578  53.2189  48.7195 0001909  40.8841 313.1985 15.08852744 15028,6917.840999999999,95.437,541.0269999999998,538.386,0.0
53578.0,STARLINK-4556,PAYLOAD,2022-11-24 14:00:01,15.08824834,0.0002001,53.219,45.7283,39.6239,337.634,0.0015075,0.00023775,0.0,0 STARLINK-4556,1 53578U 22101BD  22328.58334491  .00023775  00000-0  15075-2 0  9992,2 53578  53.2190  45.7283 0002001  39.6239 337.6340 15.08824834  1307,6917.927,95.439,541.1759999999998,538.4069999999998,0.0
53578.0,STARLINK-4556,PAYLOAD,2022-11-24 22:00:00,15.08864545,0.0001846,53.2187,44.2307,39.2905,349.5533,-0.0041856,-0.00066334,0.0,0 STARLINK-4556,1 53578U 22101BD  22328.91667824 -.00066334  00000-0 -41856-2 0  9994,2 53578  53.2187  44.2307 0001846  39.2905 349.5533 15.08864545  1305,6917.805,95.436,540.947,538.393,0.0
53578.0,STARLINK-4556,PAYLOAD,2022-11-25 06:00:00,15.08827691,0.0001721999999999,53.2189,42.7342,41.9086,358.5261,0.00054937,8.463e-05,0.0,0 STARLINK-4556,1 53578U 22101BD  22329.25001157  .00008463  00000-0  54937-3 0  9995,2 53578  53.2189  42.7342 0001722  41.9086 358.5261 15.08827691 15227,6917.918000000002,95.438,540.974,538.592,0.0
53578.0,STARLINK-4556,PAYLOAD,2022-11-25 14:00:01,15.08820462,0.0001942,53.2186,41.2396,37.5842,14.4421,0.0021066999999999,0.00033382,0.0,0 STARLINK-4556,1 53578U 22101BD  22329.58334491  .00033382  00000-0  21067-2 0  9996,2 53578  53.2186  41.2396 0001942  37.5842  14.4421 15.08820462  1301,6917.94,95.439,541.149,538.462,0.0
53578.0,STARLINK-4556,PAYLOAD,2022-11-26 00:00:00,15.08835109,0.0001754,53.2182,39.3675,39.8001,116.723,0.0022758,0.00036113,0.0,0 STARLINK-4556,1 53578U 22101BD  22330.00001157  .00036113  00000-0  22758-2 0  9998,2 53578  53.2182  39.3675 0001754  39.8001 116.7230 15.08835109  1306,6917.895,95.438,540.974,538.547,0.0
53578.0,STARLINK-4556,PAYLOAD,2022-11-26 14:00:01,15.08862268,0.0001957,53.218,36.7506,37.1234,49.7267,-0.00085454,-0.00013871,0.0,0 STARLINK-4556,1 53578U 22101BD  22330.58334491 -.00013871  00000-0 -85454-3 0  9992,2 53578  53.2180  36.7506 0001957  37.1234  49.7267 15.08862268 15421,6917.812,95.436,541.031,538.3240000000002,0.0
53578.0,STARLINK-4556,PAYLOAD,2022-11-26 22:00:00,15.08846993,0.0001839,53.2177,35.2527,39.7962,58.6755,-0.0020539,-0.00032834,0.0,0 STARLINK-4556,1 53578U 22101BD  22330.91667824 -.00032834  00000-0 -20539-2 0  9990,2 53578  53.2177  35.2527 0001839  39.7962  58.6755 15.08846993  1309,6917.859,95.437,540.996,538.452,0.0
53578.0,STARLINK-4556,PAYLOAD,2022-11-27 14:00:01,15.08793721,0.0002128,53.2176,32.2614,40.9676,80.6833,0.0030384,0.00048339,0.0,0 STARLINK-4556,1 53578U 22101BD  22331.58334491  .00048339  00000-0  30384-2 0  9999,2 53578  53.2176  32.2614 0002128  40.9676  80.6833 15.08793721  1302,6918.022,95.44,541.359,538.415,0.0
53578.0,STARLINK-4556,PAYLOAD,2022-11-27 22:00:00,15.0882331,0.0001995,53.2175,30.7634,43.3743,89.839,0.00030852,4.623e-05,0.0,0 STARLINK-4556,1 53578U 22101BD  22331.91667824  .00004623  00000-0  30852-3 0  9994,2 53578  53.2175  30.7634 0001995  43.3743  89.8390 15.08823310 15626,6917.931,95.439,541.177,538.4159999999998,0.0
53578.0,STARLINK-4556,PAYLOAD,2022-11-28 00:00:00,15.08806302,0.0001972,53.2174,30.389,43.8913,182.2219,0.0028056,0.00044605,0.0,0 STARLINK-4556,1 53578U 22101BD  22332.00001157  .00044605  00000-0  28056-2 0  9992,2 53578  53.2174  30.3890 0001972  43.8913 182.2219 15.08806302  1304,6917.983,95.44,541.2130000000002,538.484,0.0
53578.0,STARLINK-4556,PAYLOAD,2022-11-28 14:00:01,15.087651500000002,0.0002236,53.2176,27.7722,37.2074,119.1584,0.006218,0.00099873,0.0,0 STARLINK-4556,1 53578U 22101BD  22332.58334491  .00099873  00000-0  62180-2 0  9998,2 53578  53.2176  27.7722 0002236  37.2074 119.1584 15.08765150 15729,6918.109,95.442,541.521,538.427,0.0
53578.0,STARLINK-4556,PAYLOAD,2022-11-28 22:00:01,15.08822632,0.000207,53.2177,26.2741,38.676,129.3017,0.00072731,0.00011301,0.0,0 STARLINK-4556,1 53578U 22101BD  22332.91668981  .00011301  00000-0  72731-3 0  9993,2 53578  53.2177  26.2741 0002070  38.6760 129.3017 15.08822632  1300,6917.933000000001,95.439,541.23,538.366,0.0
53578.0,STARLINK-4556,PAYLOAD,2022-11-29 14:00:01,15.08829009,0.0002299,53.218,23.2829,35.6252,155.5363,0.0011123,0.00017453,0.0,0 STARLINK-4556,1 53578U 22101BD  22333.58335648  .00017453  00000-0  11123-2 0  9999,2 53578  53.2180  23.2829 0002299  35.6252 155.5363 15.08829009  1304,6917.9140000000025,95.438,541.369,538.189,0.0
53578.0,STARLINK-4556,PAYLOAD,2022-11-29 22:00:00,15.08823892,0.0002109,53.2183,21.7848,37.1316,165.56099999999995,0.0014151,0.00022295,0.0,0 STARLINK-4556,1 53578U 22101BD  22333.91667824  .00022295  00000-0  14151-2 0  9994,2 53578  53.2183  21.7848 0002109  37.1316 165.5610 15.08823892  1309,6917.93,95.439,541.254,538.336,0.0
53578.0,STARLINK-4556,PAYLOAD,2022-11-30 06:00:00,15.08857333,0.0002177,53.2185,20.2889,39.4005,174.8728,-0.00058731,-9.628e-05,0.0,0 STARLINK-4556,1 53578U 22101BD  22334.25001157 -.00009628  00000-0 -58731-3 0  9993,2 53578  53.2185  20.2889 0002177  39.4005 174.8728 15.08857333 15973,6917.8269999999975,95.436,541.198,538.186,0.0
53578.0,STARLINK-4556,PAYLOAD,2022-11-30 14:00:01,15.08843598,0.0002352,53.2182,18.7934,34.8333,191.1177,0.00064138,9.935e-05,0.0,0 STARLINK-4556,1 53578U 22101BD  22334.58335648  .00009935  00000-0  64138-3 0  9991,2 53578  53.2182  18.7934 0002352  34.8333 191.1177 15.08843598  1301,6917.869000000002,95.437,541.361,538.107,0.0
53578.0,STARLINK-4556,PAYLOAD,2022-11-30 22:00:00,15.08843297,0.0002163,53.2181,17.2936,35.6208,201.8763,-0.0013292999999999,-0.00021384,0.0,0 STARLINK-4556,1 53578U 22101BD  22334.91667824 -.00021384  00000-0 -13293-2 0  9991,2 53578  53.2181  17.2936 0002163  35.6208 201.8763 15.08843297  1302,6917.87,95.437,541.232,538.239,0.0
53578.0,STARLINK-4556,PAYLOAD,2022-12-01 14:00:01,15.08810568,0.00023,53.2187,14.3049,32.1048,228.5759,0.0034383,0.00054815,0.0,0 STARLINK-4556,1 53578U 22101BD  22335.58334491  .00054815  00000-0  34383-2 0  9992,2 53578  53.2187  14.3049 0002300  32.1048 228.5759 15.08810568  1304,6917.97,95.439,541.4259999999998,538.244,0.0
53578.0,STARLINK-4556,PAYLOAD,2022-12-01 22:00:00,15.0882671,0.0002086,53.219,12.8068,35.0753,237.1978,0.0026316,0.00041828,0.0,0 STARLINK-4556,1 53578U 22101BD  22335.91667824  .00041828  00000-0  26316-2 0  9995,2 53578  53.2190  12.8068 0002086  35.0753 237.1978 15.08826710 16220,6917.920999999999,95.438,541.229,538.3430000000002,0.0
53578.0,STARLINK-4556,PAYLOAD,2022-12-02 14:00:01,15.08828608,0.0002226,53.2186,9.8159,29.8294,265.6523,0.0013898,0.00021893,0.0,0 STARLINK-4556,1 53578U 22101BD  22336.58334491  .00021893  00000-0  13898-2 0  9991,2 53578  53.2186   9.8159 0002226  29.8294 265.6523 15.08828608 16331,6917.915,95.438,541.32,538.24,0.0
